CTC1_L_00624007-03
1 74242U 26195US  26070.40841435  .00000000  00000+0  00000-0 0  9995
2 74242  55.0000 180.0000 0000000   0.0000 144.0000  4.33913782    10
CTC1_L_00624007-04
1 74243U 23380MX  26070.40841435  .00000000  00000+0  00000-0 0  9999
2 74243  55.0000 180.0000 0000000   0.0000 180.0000  4.33913782    11
CTC1_L_00624007-05
1 74244U 25817GS  26070.40841435  .00000000  00000+0  00000-0 0  9997
2 74244  55.0000 180.0000 0000000   0.0000 216.0000  4.33913782    12
CTC1_L_00624007-06
1 74245U 24591XF  26070.40841435  .00000000  00000+0  00000-0 0  9996
2 74245  55.0000 180.0000 0000000   0.0000 252.0000  4.33913782    13
CTC1_L_00624007-07
1 74246U 25179QJ  26070.40841435  .00000000  00000+0  00000-0 0  9990
2 74246  55.0000 180.0000 0000000   0.0000 288.0000  4.33913782    13
CTC1_L_00624007-08
1 74247U 23210NU  26070.40841435  .00000000  00000+0  00000-0 0  9995
2 74247  55.0000 180.0000 0000000   0.0000 324.0000  4.33913782    15
CTC1_L_00624007-09
1 74248U 25687EJ  26070.40841435  .00000000  00000+0  00000-0 0  9996
2 74248  55.0000 180.0000 0000000   0.0000   0.0000  4.33913782    17
CTC1_L_00624007-10
1 74249U 25885RF  26070.40841435  .00000000  00000+0  00000-0 0  9997
2 74249  55.0000 180.0000 0000000   0.0000  36.0000  4.33913782    17
CTC1_L_00624008-01
1 74250U 23290BF  26070.40841435  .00000000  00000+0  00000-0 0  9997
2 74250  55.0000 210.0000 0000000   0.0000  84.0000  4.33913782    16
CTC1_L_00624008-02
1 74251U 26510BK  26070.40841435  .00000000  00000+0  00000-0 0  9996
2 74251  55.0000 210.0000 0000000   0.0000 120.0000  4.33913782    18
CTC1_L_00624008-03
1 74252U 22582MI  26070.40841435  .00000000  00000+0  00000-0 0  9992
2 74252  55.0000 210.0000 0000000   0.0000 156.0000  4.33913782    18
CTC1_L_00624008-04
1 74253U 23098WE  26070.40841435  .00000000  00000+0  00000-0 0  9996
2 74253  55.0000 210.0000 0000000   0.0000 192.0000  4.33913782    19
CTC1_L_00624008-05
1 74254U 25095QP  26070.40841435  .00000000  00000+0  00000-0 0  9996
2 74254  55.0000 210.0000 0000000   0.0000 228.0000  4.33913782    10
CTC1_L_00624008-06
1 74255U 24030SQ  26070.40841435  .00000000  00000+0  00000-0 0  9995
2 74255  55.0000 210.0000 0000000   0.0000 264.0000  4.33913782    11
CTC1_L_00624008-07
1 74256U 26009ED  26070.40841435  .00000000  00000+0  00000-0 0  9994
2 74256  55.0000 210.0000 0000000   0.0000 300.0000  4.33913782    13
CTC1_L_00624008-08
1 74257U 26455YU  26070.40841435  .00000000  00000+0  00000-0 0  9990
2 74257  55.0000 210.0000 0000000   0.0000 336.0000  4.33913782    13
CTC1_L_00624008-09
1 74258U 26618UH  26070.40841435  .00000000  00000+0  00000-0 0  9992
2 74258  55.0000 210.0000 0000000   0.0000  12.0000  4.33913782    15
CTC1_L_00624008-10
1 74259U 23185PN  26070.40841435  .00000000  00000+0  00000-0 0  9999
2 74259  55.0000 210.0000 0000000   0.0000  48.0000  4.33913782    15
CTC1_L_00624009-01
1 74260U 25576DB  26070.40841435  .00000000  00000+0  00000-0 0  9997
2 74260  55.0000 240.0000 0000000   0.0000  96.0000  4.33913782    13
CTC1_L_00624009-02
1 74261U 23251FR  26070.40841435  .00000000  00000+0  00000-0 0  9996
2 74261  55.0000 240.0000 0000000   0.0000 132.0000  4.33913782    15
CTC1_L_00624009-03
1 74262U 24590KD  26070.40841435  .00000000  00000+0  00000-0 0  9994
2 74262  55.0000 240.0000 0000000   0.0000 168.0000  4.33913782    15
CTC1_L_00624009-04
1 74263U 22112SV  26070.40841435  .00000000  00000+0  00000-0 0  9993
2 74263  55.0000 240.0000 0000000   0.0000 204.0000  4.33913782    17
CTC1_L_00624009-05
1 74264U 22859OA  26070.40841435  .00000000  00000+0  00000-0 0  9992
2 74264  55.0000 240.0000 0000000   0.0000 240.0000  4.33913782    18
CTC1_L_00624009-06
1 74265U 23528MR  26070.40841435  .00000000  00000+0  00000-0 0  9997
2 74265  55.0000 240.0000 0000000   0.0000 276.0000  4.33913782    18
CTC1_L_00624009-07
1 74266U 24033CU  26070.40841435  .00000000  00000+0  00000-0 0  9990
2 74266  55.0000 240.0000 0000000   0.0000 312.0000  4.33913782    10
CTC1_L_00624009-08
1 74267U 25468IY  26070.40841435  .00000000  00000+0  00000-0 0  9994
2 74267  55.0000 240.0000 0000000   0.0000 348.0000  4.33913782    10
CTC1_L_00624009-09
1 74268U 25036QL  26070.40841435  .00000000  00000+0  00000-0 0  9996
2 74268  55.0000 240.0000 0000000   0.0000  24.0000  4.33913782    12
CTC1_L_00624009-10
1 74269U 23020UO  26070.40841435  .00000000  00000+0  00000-0 0  9998
2 74269  55.0000 240.0000 0000000   0.0000  60.0000  4.33913782    13
CTC1_L_00624010-01
1 74270U 24493XQ  26070.40841435  .00000000  00000+0  00000-0 0  9995
2 74270  55.0000 270.0000 0000000   0.0000 108.0000  4.33913782    11
CTC1_L_00624010-02
1 74271U 26099KI  26070.40841435  .00000000  00000+0  00000-0 0  9990
2 74271  55.0000 270.0000 0000000   0.0000 144.0000  4.33913782    12
CTC1_L_00624010-03
1 74272U 26982KU  26070.40841435  .00000000  00000+0  00000-0 0  9992
2 74272  55.0000 270.0000 0000000   0.0000 180.0000  4.33913782    13
CTC1_L_00624010-04
1 74273U 25154JW  26070.40841435  .00000000  00000+0  00000-0 0  9993
2 74273  55.0000 270.0000 0000000   0.0000 216.0000  4.33913782    14
CTC1_L_00624010-05
1 74274U 25011MW  26070.40841435  .00000000  00000+0  00000-0 0  9996
2 74274  55.0000 270.0000 0000000   0.0000 252.0000  4.33913782    15
CTC1_L_00624010-06
1 74275U 25222IL  26070.40841435  .00000000  00000+0  00000-0 0  9991
2 74275  55.0000 270.0000 0000000   0.0000 288.0000  4.33913782    15
CTC1_L_00624010-07
1 74276U 25533YC  26070.40841435  .00000000  00000+0  00000-0 0  9997
2 74276  55.0000 270.0000 0000000   0.0000 324.0000  4.33913782    17
CTC1_L_00624010-08
1 74277U 23498CN  26070.40841435  .00000000  00000+0  00000-0 0  9996
2 74277  55.0000 270.0000 0000000   0.0000   0.0000  4.33913782    19
CTC1_L_00624010-09
1 74278U 22431VP  26070.40841435  .00000000  00000+0  00000-0 0  9993
2 74278  55.0000 270.0000 0000000   0.0000  36.0000  4.33913782    19
CTC1_L_00624010-10
1 74279U 26464WX  26070.40841435  .00000000  00000+0  00000-0 0  9994
2 74279  55.0000 270.0000 0000000   0.0000  72.0000  4.33913782    10
CTC1_L_00624011-01
1 74280U 23151BH  26070.40841435  .00000000  00000+0  00000-0 0  9996
2 74280  55.0000 300.0000 0000000   0.0000 120.0000  4.33913782    10
CTC1_L_00624011-02
1 74281U 24048RI  26070.40841435  .00000000  00000+0  00000-0 0  9993
2 74281  55.0000 300.0000 0000000   0.0000 156.0000  4.33913782    10
CTC1_L_00624011-03
1 74282U 25192XI  26070.40841435  .00000000  00000+0  00000-0 0  9995
2 74282  55.0000 300.0000 0000000   0.0000 192.0000  4.33913782    11
CTC1_L_00624011-04
1 74283U 23185WS  26070.40841435  .00000000  00000+0  00000-0 0  9996
2 74283  55.0000 300.0000 0000000   0.0000 228.0000  4.33913782    12
CTC1_L_00624011-05
1 74284U 23683LB  26070.40841435  .00000000  00000+0  00000-0 0  9990
2 74284  55.0000 300.0000 0000000   0.0000 264.0000  4.33913782    13
CTC1_L_00624011-06
1 74285U 22358KY  26070.40841435  .00000000  00000+0  00000-0 0  9999
2 74285  55.0000 300.0000 0000000   0.0000 300.0000  4.33913782    15
CTC1_L_00624011-07
1 74286U 24804SH  26070.40841435  .00000000  00000+0  00000-0 0  9998
2 74286  55.0000 300.0000 0000000   0.0000 336.0000  4.33913782    15
CTC1_L_00624011-08
1 74287U 24897BK  26070.40841435  .00000000  00000+0  00000-0 0  9991
2 74287  55.0000 300.0000 0000000   0.0000  12.0000  4.33913782    17
CTC1_L_00624011-09
1 74288U 23675QL  26070.40841435  .00000000  00000+0  00000-0 0  9995
2 74288  55.0000 300.0000 0000000   0.0000  48.0000  4.33913782    17
CTC1_L_00624011-10
1 74289U 23775GJ  26070.40841435  .00000000  00000+0  00000-0 0  9997
2 74289  55.0000 300.0000 0000000   0.0000  84.0000  4.33913782    18
CTC1_L_00624012-01
1 74290U 25178QF  26070.40841435  .00000000  00000+0  00000-0 0  9998
2 74290  55.0000 330.0000 0000000   0.0000 132.0000  4.33913782    17
CTC1_L_00624012-02
1 74291U 22544KJ  26070.40841435  .00000000  00000+0  00000-0 0  9993
2 74291  55.0000 330.0000 0000000   0.0000 168.0000  4.33913782    17
CTC1_L_00624012-03
1 74292U 26662UB  26070.40841435  .00000000  00000+0  00000-0 0  9999
2 74292  55.0000 330.0000 0000000   0.0000 204.0000  4.33913782    19
CTC1_L_00624012-04
1 74293U 22675XK  26070.40841435  .00000000  00000+0  00000-0 0  9990
2 74293  55.0000 330.0000 0000000   0.0000 240.0000  4.33913782    10
CTC1_L_00624012-05
1 74294U 26002LO  26070.40841435  .00000000  00000+0  00000-0 0  9999
2 74294  55.0000 330.0000 0000000   0.0000 276.0000  4.33913782    10
CTC1_L_00624012-06
1 74295U 26638CM  26070.40841435  .00000000  00000+0  00000-0 0  9995
2 74295  55.0000 330.0000 0000000   0.0000 312.0000  4.33913782    12
CTC1_L_00624012-07
1 74296U 26885UE  26070.40841435  .00000000  00000+0  00000-0 0  9990
2 74296  55.0000 330.0000 0000000   0.0000 348.0000  4.33913782    12
CTC1_L_00624012-08
1 74297U 25149LM  26070.40841435  .00000000  00000+0  00000-0 0  9993
2 74297  55.0000 330.0000 0000000   0.0000  24.0000  4.33913782    14
CTC1_L_00624012-09
1 74298U 26817BC  26070.40841435  .00000000  00000+0  00000-0 0  9997
2 74298  55.0000 330.0000 0000000   0.0000  60.0000  4.33913782    15
CTC1_L_00624012-10
1 74299U 26826GO  26070.40841435  .00000000  00000+0  00000-0 0  9998
2 74299  55.0000 330.0000 0000000   0.0000  96.0000  4.33913782    15
